[
  {
    "OBJECT_NAME": "STARLINK-32639",
    "OBJECT_ID": "2024-224Q",
    "EPOCH": "2025-06-07T17:06:46.687968",
    "MEAN_MOTION": 15.27609043,
    "ECCENTRICITY": 0.0001514,
    "INCLINATION": 43.0016,
    "RA_OF_ASC_NODE": 271.2211,
    "ARG_OF_PERICENTER": 260.3533,
    "MEAN_ANOMALY": 99.7148,
    "EPHEMERIS_TYPE": 0,
    "CLASSIFICATION_TYPE": "U",
    "NORAD_CAT_ID": 62153,
    "ELEMENT_SET_NO": 999,
    "REV_AT_EPOCH": 3026,
    "BSTAR": 0.00065246,
    "MEAN_MOTION_DOT": 0.00017751,
    "MEAN_MOTION_DDOT": 0
  },
  {
    "OBJECT_NAME": "STARLINK-32625",
    "OBJECT_ID": "2024-224R",
    "EPOCH": "2025-06-07T18:52:02.201376",
    "MEAN_MOTION": 15.27610534,
    "ECCENTRICITY": 0.0001862,
    "INCLINATION": 42.9992,
    "RA_OF_ASC_NODE": 270.9074,
    "ARG_OF_PERICENTER": 269.5711,
    "MEAN_ANOMALY": 90.4928,
    "EPHEMERIS_TYPE": 0,
    "CLASSIFICATION_TYPE": "U",
    "NORAD_CAT_ID": 62154,
    "ELEMENT_SET_NO": 999,
    "REV_AT_EPOCH": 3032,
    "BSTAR": 0.00076246,
    "MEAN_MOTION_DOT": 0.00020798,
    "MEAN_MOTION_DDOT": 0
  },
  {
    "OBJECT_NAME": "STARLINK-32635",
    "OBJECT_ID": "2024-224S",
    "EPOCH": "2025-06-07T14:48:53.515584",
    "MEAN_MOTION": 15.27584699,
    "ECCENTRICITY": 0.0001317,
    "INCLINATION": 42.9995,
    "RA_OF_ASC_NODE": 279.1421,
    "ARG_OF_PERICENTER": 252.2766,
    "MEAN_ANOMALY": 107.7942,
    "EPHEMERIS_TYPE": 0,
    "CLASSIFICATION_TYPE": "U",
    "NORAD_CAT_ID": 62155,
    "ELEMENT_SET_NO": 999,
    "REV_AT_EPOCH": 3016,
    "BSTAR": 0.00067674,
    "MEAN_MOTION_DOT": 0.0001841,
    "MEAN_MOTION_DDOT": 0
  },
  {
    "OBJECT_NAME": "STARLINK-32532",
    "OBJECT_ID": "2024-224T",
    "EPOCH": "2025-06-07T14:55:37.005312",
    "MEAN_MOTION": 15.27606689,
    "ECCENTRICITY": 8.85e-05,
    "INCLINATION": 42.9957,
    "RA_OF_ASC_NODE": 271.3907,
    "ARG_OF_PERICENTER": 266.7034,
    "MEAN_ANOMALY": 93.3716,
    "EPHEMERIS_TYPE": 0,
    "CLASSIFICATION_TYPE": "U",
    "NORAD_CAT_ID": 62156,
    "ELEMENT_SET_NO": 999,
    "REV_AT_EPOCH": 3025,
    "BSTAR": 0.00062235,
    "MEAN_MOTION_DOT": 0.00016917,
    "MEAN_MOTION_DDOT": 0
  },
  {
    "OBJECT_NAME": "STARLINK-32503",
    "OBJECT_ID": "2024-224U",
    "EPOCH": "2025-06-07T17:40:33.514464",
    "MEAN_MOTION": 15.27568713,
    "ECCENTRICITY": 0.0001792,
    "INCLINATION": 43.0015,
    "RA_OF_ASC_NODE": 278.3198,
    "ARG_OF_PERICENTER": 264.6641,
    "MEAN_ANOMALY": 95.4006,
    "EPHEMERIS_TYPE": 0,
    "CLASSIFICATION_TYPE": "U",
    "NORAD_CAT_ID": 62157,
    "ELEMENT_SET_NO": 999,
    "REV_AT_EPOCH": 2991,
    "BSTAR": 0.00099254,
    "MEAN_MOTION_DOT": 0.00027142,
    "MEAN_MOTION_DDOT": 0
  },
  {
    "OBJECT_NAME": "STARLINK-32508",
    "OBJECT_ID": "2024-224V",
    "EPOCH": "2025-06-07T01:04:51.792960",
    "MEAN_MOTION": 15.27589659,
    "ECCENTRICITY": 0.0002386,
    "INCLINATION": 43.0061,
    "RA_OF_ASC_NODE": 274.8115,
    "ARG_OF_PERICENTER": 281.928,
    "MEAN_ANOMALY": 78.1304,
    "EPHEMERIS_TYPE": 0,
    "CLASSIFICATION_TYPE": "U",
    "NORAD_CAT_ID": 62158,
    "ELEMENT_SET_NO": 999,
    "REV_AT_EPOCH": 3032,
    "BSTAR": 0.00056164,
    "MEAN_MOTION_DOT": 0.0001523,
    "MEAN_MOTION_DDOT": 0
  },
  {
    "OBJECT_NAME": "STARLINK-32524",
    "OBJECT_ID": "2024-224W",
    "EPOCH": "2025-06-07T15:11:34.324224",
    "MEAN_MOTION": 15.27596778,
    "ECCENTRICITY": 8.51e-05,
    "INCLINATION": 42.9974,
    "RA_OF_ASC_NODE": 274.9393,
    "ARG_OF_PERICENTER": 258.4103,
    "MEAN_ANOMALY": 101.6653,
    "EPHEMERIS_TYPE": 0,
    "CLASSIFICATION_TYPE": "U",
    "NORAD_CAT_ID": 62159,
    "ELEMENT_SET_NO": 999,
    "REV_AT_EPOCH": 3021,
    "BSTAR": 0.00057565,
    "MEAN_MOTION_DOT": 0.0001562,
    "MEAN_MOTION_DDOT": 0
  },
  {
    "OBJECT_NAME": "STARLINK-32484",
    "OBJECT_ID": "2024-224X",
    "EPOCH": "2025-06-07T14:07:43.490784",
    "MEAN_MOTION": 15.27593477,
    "ECCENTRICITY": 0.0001106,
    "INCLINATION": 42.9995,
    "RA_OF_ASC_NODE": 272.0033,
    "ARG_OF_PERICENTER": 258.264,
    "MEAN_ANOMALY": 101.8087,
    "EPHEMERIS_TYPE": 0,
    "CLASSIFICATION_TYPE": "U",
    "NORAD_CAT_ID": 62160,
    "ELEMENT_SET_NO": 999,
    "REV_AT_EPOCH": 3040,
    "BSTAR": 0.00085015,
    "MEAN_MOTION_DOT": 0.00023215,
    "MEAN_MOTION_DDOT": 0
  },
  {
    "OBJECT_NAME": "STARLINK-32497",
    "OBJECT_ID": "2024-224Y",
    "EPOCH": "2025-06-07T15:00:28.223424",
    "MEAN_MOTION": 15.27601329,
    "ECCENTRICITY": 0.000115,
    "INCLINATION": 42.9994,
    "RA_OF_ASC_NODE": 274.8825,
    "ARG_OF_PERICENTER": 270.5303,
    "MEAN_ANOMALY": 89.5417,
    "EPHEMERIS_TYPE": 0,
    "CLASSIFICATION_TYPE": "U",
    "NORAD_CAT_ID": 62161,
    "ELEMENT_SET_NO": 999,
    "REV_AT_EPOCH": 3036,
    "BSTAR": 0.00067228,
    "MEAN_MOTION_DOT": 0.00018296,
    "MEAN_MOTION_DDOT": 0
  },
  {
    "OBJECT_NAME": "STARLINK-32526",
    "OBJECT_ID": "2024-224Z",
    "EPOCH": "2025-06-07T15:06:01.280736",
    "MEAN_MOTION": 15.27598947,
    "ECCENTRICITY": 8.91e-05,
    "INCLINATION": 42.9974,
    "RA_OF_ASC_NODE": 274.9125,
    "ARG_OF_PERICENTER": 273.2671,
    "MEAN_ANOMALY": 86.8079,
    "EPHEMERIS_TYPE": 0,
    "CLASSIFICATION_TYPE": "U",
    "NORAD_CAT_ID": 62162,
    "ELEMENT_SET_NO": 999,
    "REV_AT_EPOCH": 3036,
    "BSTAR": 0.0006276,
    "MEAN_MOTION_DOT": 0.00017058,
    "MEAN_MOTION_DDOT": 0
  },
  {
    "OBJECT_NAME": "STARLINK-32523",
    "OBJECT_ID": "2024-225C",
    "EPOCH": "2025-06-07T02:36:28.821024",
    "MEAN_MOTION": 14.98310261,
    "ECCENTRICITY": 0.0004195,
    "INCLINATION": 70,
    "RA_OF_ASC_NODE": 139.3703,
    "ARG_OF_PERICENTER": 298.3165,
    "MEAN_ANOMALY": 61.7571,
    "EPHEMERIS_TYPE": 0,
    "CLASSIFICATION_TYPE": "U",
    "NORAD_CAT_ID": 62165,
    "ELEMENT_SET_NO": 999,
    "REV_AT_EPOCH": 2859,
    "BSTAR": -0.0012575,
    "MEAN_MOTION_DOT": -0.00015059,
    "MEAN_MOTION_DDOT": 0
  },
  {
    "OBJECT_NAME": "STARLINK-32551",
    "OBJECT_ID": "2024-225D",
    "EPOCH": "2025-06-07T16:25:38.938080",
    "MEAN_MOTION": 14.9835191,
    "ECCENTRICITY": 0.000334,
    "INCLINATION": 70.0013,
    "RA_OF_ASC_NODE": 137.7743,
    "ARG_OF_PERICENTER": 245.7031,
    "MEAN_ANOMALY": 114.3779,
    "EPHEMERIS_TYPE": 0,
    "CLASSIFICATION_TYPE": "U",
    "NORAD_CAT_ID": 62166,
    "ELEMENT_SET_NO": 999,
    "REV_AT_EPOCH": 2867,
    "BSTAR": -2.8864e-05,
    "MEAN_MOTION_DOT": -4.38e-06,
    "MEAN_MOTION_DDOT": 0
  },
  {
    "OBJECT_NAME": "STARLINK-32506",
    "OBJECT_ID": "2024-225E",
    "EPOCH": "2025-06-07T15:49:22.916064",
    "MEAN_MOTION": 14.98410647,
    "ECCENTRICITY": 0.0006305,
    "INCLINATION": 70.0004,
    "RA_OF_ASC_NODE": 138.0839,
    "ARG_OF_PERICENTER": 257.7945,
    "MEAN_ANOMALY": 102.2508,
    "EPHEMERIS_TYPE": 0,
    "CLASSIFICATION_TYPE": "U",
    "NORAD_CAT_ID": 62167,
    "ELEMENT_SET_NO": 999,
    "REV_AT_EPOCH": 2866,
    "BSTAR": -0.0017889,
    "MEAN_MOTION_DOT": -0.00021425,
    "MEAN_MOTION_DDOT": 0
  },
  {
    "OBJECT_NAME": "STARLINK-32562",
    "OBJECT_ID": "2024-225F",
    "EPOCH": "2025-06-07T08:43:02.097408",
    "MEAN_MOTION": 14.98354342,
    "ECCENTRICITY": 0.000308,
    "INCLINATION": 69.9999,
    "RA_OF_ASC_NODE": 138.6524,
    "ARG_OF_PERICENTER": 267.9934,
    "MEAN_ANOMALY": 92.0873,
    "EPHEMERIS_TYPE": 0,
    "CLASSIFICATION_TYPE": "U",
    "NORAD_CAT_ID": 62168,
    "ELEMENT_SET_NO": 999,
    "REV_AT_EPOCH": 2863,
    "BSTAR": 0.00098349,
    "MEAN_MOTION_DOT": 0.00011669,
    "MEAN_MOTION_DDOT": 0
  }
]