62153,STARLINK-32639,2024,94.27,-1.0,+,43.0,Active,0,LEO,USA,USA,Unknown,Unknown,Unknown,1 62153U 24224Q   25158.71304037  .00017751  00000+0  65246-3 0  9993,2 62153  43.0016 271.2211 0001514 260.3533  99.7148 15.27609043 30268,15.27609043,0.0001514,LEO
62154,STARLINK-32625,2024,94.27,-1.0,+,43.0,Active,0,LEO,USA,USA,Unknown,Unknown,Unknown,1 62154U 24224R   25158.78613659  .00020798  00000+0  76246-3 0  9991,2 62154  42.9992 270.9074 0001862 269.5711  90.4928 15.27610534 30326,15.27610534,0.0001862,LEO
62155,STARLINK-32635,2024,94.27,-1.0,+,43.0,Active,0,LEO,USA,USA,Unknown,Unknown,Unknown,1 62155U 24224S   25158.61728606  .00018410  00000+0  67674-3 0  9996,2 62155  42.9995 279.1421 0001317 252.2766 107.7942 15.27584699 30163,15.27584699,0.0001317,LEO
62156,STARLINK-32532,2024,94.27,-1.0,+,43.0,Active,0,LEO,USA,USA,Unknown,Unknown,Unknown,1 62156U 24224T   25158.62195608  .00016917  00000+0  62235-3 0  9996,2 62156  42.9957 271.3907 0000885 266.7034  93.3716 15.27606689 30255,15.27606689,8.85e-05,LEO
62157,STARLINK-32503,2024,94.27,-1.0,+,42.99,Active,0,LEO,USA,USA,Unknown,Unknown,Unknown,1 62157U 24224U   25158.73649901  .00027142  00000+0  99254-3 0  9992,2 62157  43.0015 278.3198 0001792 264.6641  95.4006 15.27568713 29912,15.27568713,0.0001792,LEO
62158,STARLINK-32508,2024,94.27,-1.0,+,43.01,Active,0,LEO,USA,USA,Unknown,Unknown,Unknown,1 62158U 24224V   25158.04504390  .00015230  00000+0  56164-3 0  9997,2 62158  43.0061 274.8115 0002386 281.9280  78.1304 15.27589659 30323,15.27589659,0.0002386,LEO
62159,STARLINK-32524,2024,94.27,-1.0,+,43.0,Active,0,LEO,USA,USA,Unknown,Unknown,Unknown,1 62159U 24224W   25158.63303616  .00015620  00000+0  57565-3 0  9990,2 62159  42.9974 274.9393 0000851 258.4103 101.6653 15.27596778 30219,15.27596778,8.51e-05,LEO
62160,STARLINK-32484,2024,94.27,-1.0,+,43.0,Active,0,LEO,USA,USA,Unknown,Unknown,Unknown,1 62160U 24224X   25158.58869781  .00023215  00000+0  85015-3 0  9996,2 62160  42.9995 272.0033 0001106 258.2640 101.8087 15.27593477 30409,15.27593477,0.0001106,LEO
62161,STARLINK-32497,2024,94.27,-1.0,+,43.0,Active,0,LEO,USA,USA,Unknown,Unknown,Unknown,1 62161U 24224Y   25158.62532666  .00018296  00000+0  67228-3 0  9990,2 62161  42.9994 274.8825 0001150 270.5303  89.5417 15.27601329 30360,15.27601329,0.000115,LEO
62162,STARLINK-32526,2024,94.27,-1.0,+,43.0,Active,0,LEO,USA,USA,Unknown,Unknown,Unknown,1 62162U 24224Z   25158.62918149  .00017058  00000+0  62760-3 0  9996,2 62162  42.9974 274.9125 0000891 273.2671  86.8079 15.27598947 30367,15.27598947,8.91e-05,LEO
62165,STARLINK-32523,2024,96.11,-1.0,+,70.0,Active,0,LEO,USA,USA,Unknown,Unknown,Unknown,1 62165U 24225C   25158.10866691 -.00015059  00000+0 -12575-2 0  9996,2 62165  70.0000 139.3703 0004195 298.3165  61.7571 14.98310261 28594,14.98310261,0.0004195,LEO
62166,STARLINK-32551,2024,96.11,-1.0,+,70.0,Active,0,LEO,USA,USA,Unknown,Unknown,Unknown,1 62166U 24225D   25158.68447845 -.00000438  00000+0 -28864-4 0  9991,2 62166  70.0013 137.7743 0003340 245.7031 114.3779 14.98351910 28674,14.9835191,0.000334,LEO
62167,STARLINK-32506,2024,96.09,-1.0,+,70.0,Active,0,LEO,USA,USA,Unknown,Unknown,Unknown,1 62167U 24225E   25158.65929301 -.00021425  00000+0 -17889-2 0  9993,2 62167  70.0004 138.0839 0006305 257.7945 102.2508 14.98410647 28664,14.98410647,0.0006305,LEO
62168,STARLINK-32562,2024,96.11,-1.0,+,70.0,Active,0,LEO,USA,USA,Unknown,Unknown,Unknown,1 62168U 24225F   25158.36321872  .00011669  00000+0  98349-3 0  9999,2 62168  69.9999 138.6524 0003080 267.9934  92.0873 14.98354342 28637,14.98354342,0.000308,LEO
